KUIPER-00606            
1 69289U 26118Y   26159.83336806  .00025093  00000+0  67748-3 0  9995
2 69289  51.8696  93.6433 0004826 122.6314  22.3543 15.37601999  2256
KUIPER-00607            
1 69290U 26118Z   26159.83336806  .00025173  00000+0  68644-3 0  9992
2 69290  51.8681  93.6680 0006492 129.0688   4.5351 15.37284484  2213
KUIPER-00608            
1 69291U 26118AA  26159.83336806  .00025244  00000+0  72155-3 0  9994
2 69291  51.8603  93.7392 0010663 153.5037 305.1748 15.35780768  2184
KUIPER-00610            
1 69292U 26118AB  26159.83336806  .00024914  00000+0  66127-3 0  9990
2 69292  51.8721  93.5997 0003085 107.6605  56.1294 15.38139531  2106
KUIPER-00613            
1 69293U 26118AC  26159.83336806  .00026745  00000+0  77601-3 0  9994
2 69293  51.8627  93.7693 0010724 156.2050 287.7678 15.35276581  1302
KUIPER-00618            
1 69294U 26118AD  26159.83336806  .00028794  00000+0  75571-3 0  9995
2 69294  51.8719  93.5701 0002037  64.6429 113.0864 15.38406772  1435
KUIPER-00620            
1 69295U 26118AE  26159.83336806  .00025434  00000+0  67296-3 0  9999
2 69295  51.8716  93.5949 0003127  96.0632  70.7951 15.38223970  2640
STARLINK-37501          
1 69296U 26119A   26159.83336806 -.00123921  00000+0 -68090-3 0  9996
2 69296  97.2840 185.1932 0001131  99.1664 151.7416 15.79979437  2541
STARLINK-37496          
1 69297U 26119B   26159.83336806 -.00093666  00000+0 -51296-3 0  9999
2 69297  97.2840 185.1931 0000933  87.6018 160.6046 15.79968903  2549
STARLINK-37519          
1 69298U 26119C   26159.83336806 -.00027771  00000+0 -14460-3 0  9996
2 69298  97.2837 185.1994 0001402  88.4566 176.9324 15.80831439  2548
STARLINK-37455          
1 69299U 26119D   26159.83336806 -.00038231  00000+0 -20773-3 0  9994
2 69299  97.2837 185.1977 0001648  87.6503 170.1577 15.79952179  2543
STARLINK-37456          
1 69300U 26119E   26159.83336806 -.00017464  00000+0 -90575-4 0  9990
2 69300  97.2835 185.2022 0000908 105.7102 164.1724 15.80826999  2540
STARLINK-37630          
1 69301U 26119F   26159.83336806 -.00026644  00000+0 -13870-3 0  9993
2 69301  97.2836 185.2034 0000861  98.7365 173.7393 15.80830776  2709
STARLINK-37804          
1 69302U 26119G   26159.83336806 -.00132807  00000+0 -70182-3 0  9992
2 69302  97.2835 185.2042 0001254 125.5887 148.6199 15.80858474  2703
STARLINK-37730          
1 69303U 26119H   26159.83336806 -.00052239  00000+0 -27330-3 0  9990
2 69303  97.2832 185.2072 0000706  96.1980 186.4151 15.80842049  2701
STARLINK-37731          
1 69304U 26119J   26159.83336806 -.00239669  00000+0 -12780-2 0  9997
2 69304  97.2832 185.2081 0001451  98.0051 185.3726 15.80935814  2709
STARLINK-37734          
1 69305U 26119K   26159.83336806  .00010036  00000+0  53075-4 0  9995
2 69305  97.2834 185.2105 0000902 101.4281 187.1534 15.80815609  2709
STARLINK-37701          
1 69306U 26119L   26159.83336806  .00020485  00000+0  10744-3 0  9990
2 69306  97.2834 185.2105 0000862  84.3894 205.7245 15.80814835  2700
STARLINK-37732          
1 69307U 26119M   26159.83336806 -.00231115  00000+0 -12315-2 0  9992
2 69307  97.2835 185.2124 0001441  93.2703 199.2313 15.80930320  2706
STARLINK-37689          
1 69308U 26119N   26159.83336806  .00008805  00000+0  46665-4 0  9996
2 69308  97.2836 185.2134 0000888  94.5260 204.6976 15.80815474  2703
STARLINK-37619          
1 69309U 26119P   26159.83336806 -.00011688  00000+0 -60341-4 0  9999
2 69309  97.2832 185.2162 0001487  91.2003 211.0197 15.80822209  2707
STARLINK-37794          
1 69310U 26119Q   26159.83336806 -.00006051  00000+0 -30860-4 0  9992
2 69310  97.2835 185.2205 0000823 105.1412 209.7561 15.80824337  2705
STARLINK-37795          
1 69311U 26119R   26159.83336806 -.00078521  00000+0 -41201-3 0  9994
2 69311  97.2835 185.2211 0001326  92.5276 224.4385 15.80862053  2704
STARLINK-37790          
1 69312U 26119S   26159.83336806 -.00014561  00000+0 -75355-4 0  9997
2 69312  97.2834 185.2235 0001232  93.8942 228.4280 15.80829456  2708
STARLINK-37676          
1 69313U 26119T   26159.83336806  .00039239  00000+0  20496-3 0  9990
2 69313  97.2835 185.2282 0000737  91.3808 242.4646 15.80785669  2704
STARLINK-37617          
1 69314U 26119U   26159.83336806 -.00046294  00000+0 -24191-3 0  9998
2 69314  97.2836 185.2306 0001580  93.2357 245.5447 15.80843236  2708
STARLINK-37627          
1 69315U 26119V   26159.83336806  .00002115  00000+0  11777-4 0  9998
2 69315  97.2835 185.2310 0000635 109.2228 231.3439 15.80819667  2703
STARLINK-37738          
1 69316U 26119W   26159.83336806 -.00242694  00000+0 -12947-2 0  9997
2 69316  97.2830 185.2261 0001233  92.2341 235.6110 15.80935343  2709
STARLINK-37799          
1 69317U 26119X   26159.83336806 -.00075850  00000+0 -39787-3 0  9998
2 69317  97.2835 185.2300 0001287 100.6062 235.9362 15.80860777  2656
STARLINK-37802          
1 69318U 26119Y   26159.83336806  .00009070  00000+0  48047-4 0  9998
2 69318  97.2834 185.2352 0001040  94.5033 253.5365 15.80815045  2702
