OBJECT_NAME,OBJECT_ID,EPOCH,MEAN_MOTION,ECCENTRICITY,INCLINATION,RA_OF_ASC_NODE,ARG_OF_PERICENTER,MEAN_ANOMALY,EPHEMERIS_TYPE,CLASSIFICATION_TYPE,NORAD_CAT_ID,ELEMENT_SET_NO,REV_AT_EPOCH,BSTAR,MEAN_MOTION_DOT,MEAN_MOTION_DDOT
KUIPER-00606,2026-118Y,2026-06-08T20:00:03.000384,15.37601999,.0004826,51.8696,93.6433,122.6314,22.3543,0,U,69289,999,225,.67748E-3,.25093E-3,0
KUIPER-00607,2026-118Z,2026-06-08T20:00:03.000384,15.37284484,.0006492,51.8681,93.6680,129.0688,4.5351,0,U,69290,999,221,.68644E-3,.25173E-3,0
KUIPER-00608,2026-118AA,2026-06-08T20:00:03.000384,15.35780768,.0010663,51.8603,93.7392,153.5037,305.1748,0,U,69291,999,218,.72155E-3,.25244E-3,0
KUIPER-00610,2026-118AB,2026-06-08T20:00:03.000384,15.38139531,.0003085,51.8721,93.5997,107.6605,56.1294,0,U,69292,999,210,.66127E-3,.24914E-3,0
KUIPER-00613,2026-118AC,2026-06-08T20:00:03.000384,15.35276581,.0010724,51.8627,93.7693,156.2050,287.7678,0,U,69293,999,130,.77601E-3,.26745E-3,0
KUIPER-00618,2026-118AD,2026-06-08T20:00:03.000384,15.38406772,.0002037,51.8719,93.5701,64.6429,113.0864,0,U,69294,999,143,.75571E-3,.28794E-3,0
KUIPER-00620,2026-118AE,2026-06-08T20:00:03.000384,15.38223970,.0003127,51.8716,93.5949,96.0632,70.7951,0,U,69295,999,264,.67296E-3,.25434E-3,0
STARLINK-37501,2026-119A,2026-06-08T20:00:03.000384,15.79979437,.0001131,97.2840,185.1932,99.1664,151.7416,0,U,69296,999,254,-.6809E-3,-.123921E-2,0
STARLINK-37496,2026-119B,2026-06-08T20:00:03.000384,15.79968903,.0000933,97.2840,185.1931,87.6018,160.6046,0,U,69297,999,254,-.51296E-3,-.93666E-3,0
STARLINK-37519,2026-119C,2026-06-08T20:00:03.000384,15.80831439,.0001402,97.2837,185.1994,88.4566,176.9324,0,U,69298,999,254,-.1446E-3,-.27771E-3,0
STARLINK-37455,2026-119D,2026-06-08T20:00:03.000384,15.79952179,.0001648,97.2837,185.1977,87.6503,170.1577,0,U,69299,999,254,-.20773E-3,-.38231E-3,0
STARLINK-37456,2026-119E,2026-06-08T20:00:03.000384,15.80826999,.0000908,97.2835,185.2022,105.7102,164.1724,0,U,69300,999,254,-.90575E-4,-.17464E-3,0
STARLINK-37630,2026-119F,2026-06-08T20:00:03.000384,15.80830776,.0000861,97.2836,185.2034,98.7365,173.7393,0,U,69301,999,270,-.1387E-3,-.26644E-3,0
STARLINK-37804,2026-119G,2026-06-08T20:00:03.000384,15.80858474,.0001254,97.2835,185.2042,125.5887,148.6199,0,U,69302,999,270,-.70182E-3,-.132807E-2,0
STARLINK-37730,2026-119H,2026-06-08T20:00:03.000384,15.80842049,.0000706,97.2832,185.2072,96.1980,186.4151,0,U,69303,999,270,-.2733E-3,-.52239E-3,0
STARLINK-37731,2026-119J,2026-06-08T20:00:03.000384,15.80935814,.0001451,97.2832,185.2081,98.0051,185.3726,0,U,69304,999,270,-.1278E-2,-.239669E-2,0
STARLINK-37734,2026-119K,2026-06-08T20:00:03.000384,15.80815609,.0000902,97.2834,185.2105,101.4281,187.1534,0,U,69305,999,270,.53075E-4,.10036E-3,0
STARLINK-37701,2026-119L,2026-06-08T20:00:03.000384,15.80814835,.0000862,97.2834,185.2105,84.3894,205.7245,0,U,69306,999,270,.10744E-3,.20485E-3,0
STARLINK-37732,2026-119M,2026-06-08T20:00:03.000384,15.80930320,.0001441,97.2835,185.2124,93.2703,199.2313,0,U,69307,999,270,-.12315E-2,-.231115E-2,0
STARLINK-37689,2026-119N,2026-06-08T20:00:03.000384,15.80815474,.0000888,97.2836,185.2134,94.5260,204.6976,0,U,69308,999,270,.46665E-4,.8805E-4,0
STARLINK-37619,2026-119P,2026-06-08T20:00:03.000384,15.80822209,.0001487,97.2832,185.2162,91.2003,211.0197,0,U,69309,999,270,-.60341E-4,-.11688E-3,0
STARLINK-37794,2026-119Q,2026-06-08T20:00:03.000384,15.80824337,.0000823,97.2835,185.2205,105.1412,209.7561,0,U,69310,999,270,-.3086E-4,-.6051E-4,0
STARLINK-37795,2026-119R,2026-06-08T20:00:03.000384,15.80862053,.0001326,97.2835,185.2211,92.5276,224.4385,0,U,69311,999,270,-.41201E-3,-.78521E-3,0
STARLINK-37790,2026-119S,2026-06-08T20:00:03.000384,15.80829456,.0001232,97.2834,185.2235,93.8942,228.4280,0,U,69312,999,270,-.75355E-4,-.14561E-3,0
STARLINK-37676,2026-119T,2026-06-08T20:00:03.000384,15.80785669,.0000737,97.2835,185.2282,91.3808,242.4646,0,U,69313,999,270,.20496E-3,.39239E-3,0
STARLINK-37617,2026-119U,2026-06-08T20:00:03.000384,15.80843236,.000158,97.2836,185.2306,93.2357,245.5447,0,U,69314,999,270,-.24191E-3,-.46294E-3,0
STARLINK-37627,2026-119V,2026-06-08T20:00:03.000384,15.80819667,.0000635,97.2835,185.2310,109.2228,231.3439,0,U,69315,999,270,.11777E-4,.2115E-4,0
STARLINK-37738,2026-119W,2026-06-08T20:00:03.000384,15.80935343,.0001233,97.2830,185.2261,92.2341,235.6110,0,U,69316,999,270,-.12947E-2,-.242694E-2,0
STARLINK-37799,2026-119X,2026-06-08T20:00:03.000384,15.80860777,.0001287,97.2835,185.2300,100.6062,235.9362,0,U,69317,999,265,-.39787E-3,-.7585E-3,0
STARLINK-37802,2026-119Y,2026-06-08T20:00:03.000384,15.80815045,.000104,97.2834,185.2352,94.5033,253.5365,0,U,69318,999,270,.48047E-4,.907E-4,0
